[{"OBJECT_NAME":"YAOGAN-30 05A","OBJECT_ID":"2018-011B","EPOCH":"2026-03-09T23:00:41.042304","MEAN_MOTION":15.02108706,"ECCENTRICITY":0.00040081,"INCLINATION":34.9973,"RA_OF_ASC_NODE":35.5053,"ARG_OF_PERICENTER":199.9129,"MEAN_ANOMALY":160.1423,"EPHEMERIS_TYPE":0,"CLASSIFICATION_TYPE":"U","NORAD_CAT_ID":43170,"ELEMENT_SET_NO":999,"REV_AT_EPOCH":44321,"BSTAR":0.00032465095,"MEAN_MOTION_DOT":4.327e-5,"MEAN_MOTION_DDOT":0},{"OBJECT_NAME":"STARLINK-5493","OBJECT_ID":"2023-013C","EPOCH":"2026-03-09T00:17:51.258048","MEAN_MOTION":15.02539869,"ECCENTRICITY":0.00018633,"INCLINATION":43.007,"RA_OF_ASC_NODE":304.3484,"ARG_OF_PERICENTER":254.1725,"MEAN_ANOMALY":105.8912,"EPHEMERIS_TYPE":0,"CLASSIFICATION_TYPE":"U","NORAD_CAT_ID":55333,"ELEMENT_SET_NO":999,"REV_AT_EPOCH":17160,"BSTAR":3.4312718e-5,"MEAN_MOTION_DOT":2.6e-6,"MEAN_MOTION_DDOT":0}]
